{
  "type": "FeatureCollection",
  "features": [
    {
      "type": "Feature",
      "properties": {
        "norad_id": 41556,
        "name": "ZIYUAN 3-2 (ZY 3-2)",
        "group": "resource",
        "lat": 37.294232237175244,
        "lon": -115.21385025422411,
        "alt_km": 502.2925715712554,
        "timestamp": "2025-12-10T21:43:21.743857+00:00",
        "meta_object_name": "ZIYUAN 3-2 (ZY 3-2)",
        "meta_object_id": "2016-033A",
        "meta_epoch": "2025-12-10T14:47:04.539264",
        "meta_mean_motion": 15.21452142,
        "meta_eccentricity": 0.00124233,
        "meta_inclination": 97.4041,
        "meta_ra_of_asc_node": 58.8177,
        "meta_arg_of_pericenter": 257.2424,
        "meta_mean_anomaly": 102.7424,
        "meta_ephemeris_type": 0,
        "meta_classification_type": "U",
        "meta_norad_cat_id": 41556,
        "meta_element_set_no": 999,
        "meta_rev_at_epoch": 52931,
        "meta_bstar": 0.00050740134,
        "meta_mean_motion_dot": 0.00011363,
        "meta_mean_motion_ddot": 0,
        "tle_line1": "1 41556U 16033A   25344.61602476  .00011363  00000+0  50740-3 0  9996",
        "tle_line2": "2 41556  97.4041  58.8177 0012423 257.2424 102.7424 15.21452142529319"
      },
      "geometry": {
        "type": "Point",
        "coordinates": [
          -115.21385025422411,
          37.294232237175244
        ]
      }
    },
    {
      "type": "Feature",
      "properties": {
        "norad_id": 41599,
        "name": "CARTOSAT-2C",
        "group": "resource",
        "lat": 76.80577345320776,
        "lon": -103.75973727000576,
        "alt_km": 494.3130264477895,
        "timestamp": "2025-12-10T21:43:21.743867+00:00",
        "meta_object_name": "CARTOSAT-2C",
        "meta_object_id": "2016-040A",
        "meta_epoch": "2025-12-10T14:57:29.691648",
        "meta_mean_motion": 15.19266011,
        "meta_eccentricity": 0.00109603,
        "meta_inclination": 97.4763,
        "meta_ra_of_asc_node": 41.8949,
        "meta_arg_of_pericenter": 71.3243,
        "meta_mean_anomaly": 288.918,
        "meta_ephemeris_type": 0,
        "meta_classification_type": "U",
        "meta_norad_cat_id": 41599,
        "meta_element_set_no": 999,
        "meta_rev_at_epoch": 52508,
        "meta_bstar": 0.00049124587,
        "meta_mean_motion_dot": 0.00010312,
        "meta_mean_motion_ddot": 0,
        "tle_line1": "1 41599U 16040A   25344.62326032  .00010312  00000+0  49125-3 0  9991",
        "tle_line2": "2 41599  97.4763  41.8949 0010960  71.3243 288.9180 15.19266011525085"
      },
      "geometry": {
        "type": "Point",
        "coordinates": [
          -103.75973727000576,
          76.80577345320776
        ]
      }
    },
    {
      "type": "Feature",
      "properties": {
        "norad_id": 41601,
        "name": "SKYSAT-C1",
        "group": "resource",
        "lat": 67.39282083464809,
        "lon": 4.9047696552866284,
        "alt_km": 460.5059018121301,
        "timestamp": "2025-12-10T21:43:21.743878+00:00",
        "meta_object_name": "SKYSAT-C1",
        "meta_object_id": "2016-040C",
        "meta_epoch": "2025-12-10T01:03:12.196224",
        "meta_mean_motion": 15.32510525,
        "meta_eccentricity": 0.00026802,
        "meta_inclination": 96.9824,
        "meta_ra_of_asc_node": 21.2092,
        "meta_arg_of_pericenter": 23.5908,
        "meta_mean_anomaly": 336.5457,
        "meta_ephemeris_type": 0,
        "meta_classification_type": "U",
        "meta_norad_cat_id": 41601,
        "meta_element_set_no": 999,
        "meta_rev_at_epoch": 52886,
        "meta_bstar": 0.00041563234,
        "meta_mean_motion_dot": 0.00012984,
        "meta_mean_motion_ddot": 0,
        "tle_line1": "1 41601U 16040C   25344.04389116  .00012984  00000+0  41563-3 0  9998",
        "tle_line2": "2 41601  96.9824  21.2092 0002680  23.5908 336.5457 15.32510525528862"
      },
      "geometry": {
        "type": "Point",
        "coordinates": [
          4.9047696552866284,
          67.39282083464809
        ]
      }
    },
    {
      "type": "Feature",
      "properties": {
        "norad_id": 41603,
        "name": "LAPAN-A3",
        "group": "resource",
        "lat": -38.59306025406486,
        "lon": 156.7835829865136,
        "alt_km": 481.3984996853678,
        "timestamp": "2025-12-10T21:43:21.743889+00:00",
        "meta_object_name": "LAPAN-A3",
        "meta_object_id": "2016-040E",
        "meta_epoch": "2025-12-10T14:29:49.498368",
        "meta_mean_motion": 15.31523446,
        "meta_eccentricity": 0.00098989,
        "meta_inclination": 97.1433,
        "meta_ra_of_asc_node": 342.2378,
        "meta_arg_of_pericenter": 342.1433,
        "meta_mean_anomaly": 17.946,
        "meta_ephemeris_type": 0,
        "meta_classification_type": "U",
        "meta_norad_cat_id": 41603,
        "meta_element_set_no": 999,
        "meta_rev_at_epoch": 52593,
        "meta_bstar": 0.00019471833,
        "meta_mean_motion_dot": 5.861e-05,
        "meta_mean_motion_ddot": 0,
        "tle_line1": "1 41603U 16040E   25344.60404512  .00005861  00000+0  19472-3 0  9990",
        "tle_line2": "2 41603  97.1433 342.2378 0009898 342.1433  17.9460 15.31523446525931"
      },
      "geometry": {
        "type": "Point",
        "coordinates": [
          156.7835829865136,
          -38.59306025406486
        ]
      }
    },
    {
      "type": "Feature",
      "properties": {
        "norad_id": 41604,
        "name": "BIROS",
        "group": "resource",
        "lat": 20.598228071260593,
        "lon": 13.59058386802178,
        "alt_km": 307.17417010424197,
        "timestamp": "2025-12-10T21:43:21.743899+00:00",
        "meta_object_name": "BIROS",
        "meta_object_id": "2016-040F",
        "meta_epoch": "2025-12-10T01:58:59.670912",
        "meta_mean_motion": 15.88522659,
        "meta_eccentricity": 0.00031678,
        "meta_inclination": 97.0703,
        "meta_ra_of_asc_node": 15.4098,
        "meta_arg_of_pericenter": 156.5515,
        "meta_mean_anomaly": 203.5903,
        "meta_ephemeris_type": 0,
        "meta_classification_type": "U",
        "meta_norad_cat_id": 41604,
        "meta_element_set_no": 999,
        "meta_rev_at_epoch": 52830,
        "meta_bstar": 0.00072041907,
        "meta_mean_motion_dot": 0.00203476,
        "meta_mean_motion_ddot": 0,
        "tle_line1": "1 41604U 16040F   25344.08263508  .00203476  00000+0  72042-3 0  9995",
        "tle_line2": "2 41604  97.0703  15.4098 0003167 156.5515 203.5903 15.88522659528306"
      },
      "geometry": {
        "type": "Point",
        "coordinates": [
          13.59058386802178,
          20.598228071260593
        ]
      }
    },
    {
      "type": "Feature",
      "properties": {
        "norad_id": 41727,
        "name": "GAOFEN-3",
        "group": "resource",
        "lat": -44.63067044965821,
        "lon": 162.12721407393113,
        "alt_km": 758.8978635229741,
        "timestamp": "2025-12-10T21:43:21.743909+00:00",
        "meta_object_name": "GAOFEN-3",
        "meta_object_id": "2016-049A",
        "meta_epoch": "2025-12-10T14:01:17.890176",
        "meta_mean_motion": 14.42212033,
        "meta_eccentricity": 0.00014824,
        "meta_inclination": 98.404,
        "meta_ra_of_asc_node": 350.203,
        "meta_arg_of_pericenter": 63.5329,
        "meta_mean_anomaly": 296.6012,
        "meta_ephemeris_type": 0,
        "meta_classification_type": "U",
        "meta_norad_cat_id": 41727,
        "meta_element_set_no": 999,
        "meta_rev_at_epoch": 49146,
        "meta_bstar": 7.9352e-08,
        "meta_mean_motion_dot": -4.3e-07,
        "meta_mean_motion_ddot": 0,
        "tle_line1": "1 41727U 16049A   25344.58423484 -.00000043  00000+0  79352-7 0  9997",
        "tle_line2": "2 41727  98.4040 350.2030 0001482  63.5329 296.6012 14.42212033491466"
      },
      "geometry": {
        "type": "Point",
        "coordinates": [
          162.12721407393113,
          -44.63067044965821
        ]
      }
    },
    {
      "type": "Feature",
      "properties": {
        "norad_id": 41771,
        "name": "SKYSAT-C4",
        "group": "resource",
        "lat": -59.257117297016244,
        "lon": 21.995237245506384,
        "alt_km": 447.7637880862667,
        "timestamp": "2025-12-10T21:43:21.743919+00:00",
        "meta_object_name": "SKYSAT-C4",
        "meta_object_id": "2016-058B",
        "meta_epoch": "2025-12-10T12:38:19.390848",
        "meta_mean_motion": 15.42146745,
        "meta_eccentricity": 0.00012807,
        "meta_inclination": 96.9377,
        "meta_ra_of_asc_node": 9.8214,
        "meta_arg_of_pericenter": 134.2764,
        "meta_mean_anomaly": 225.859,
        "meta_ephemeris_type": 0,
        "meta_classification_type": "U",
        "meta_norad_cat_id": 41771,
        "meta_element_set_no": 999,
        "meta_rev_at_epoch": 51633,
        "meta_bstar": 0.0004975141,
        "meta_mean_motion_dot": 0.00021261,
        "meta_mean_motion_ddot": 0,
        "tle_line1": "1 41771U 16058B   25344.52661332  .00021261  00000+0  49751-3 0  9996",
        "tle_line2": "2 41771  96.9377   9.8214 0001280 134.2764 225.8590 15.42146745516333"
      },
      "geometry": {
        "type": "Point",
        "coordinates": [
          21.995237245506384,
          -59.257117297016244
        ]
      }
    }
  ]
}